[{"OBJECT_NAME":"STARLINK-34553","OBJECT_ID":"2025-139T","EPOCH":"2025-11-26T01:43:48.675360","MEAN_MOTION":15.30200102,"ECCENTRICITY":0.0001569,"INCLINATION":53.1582,"RA_OF_ASC_NODE":248.0591,"ARG_OF_PERICENTER":83.0063,"MEAN_ANOMALY":277.1116,"EPHEMERIS_TYPE":0,"CLASSIFICATION_TYPE":"U","NORAD_CAT_ID":64681,"ELEMENT_SET_NO":999,"REV_AT_EPOCH":2442,"BSTAR":0.00053916,"MEAN_MOTION_DOT":0.00015643,"MEAN_MOTION_DDOT":0},{"OBJECT_NAME":"STARLINK-34551","OBJECT_ID":"2025-139U","EPOCH":"2025-11-26T01:30:35.875008","MEAN_MOTION":15.39643188,"ECCENTRICITY":0.0001508,"INCLINATION":53.1581,"RA_OF_ASC_NODE":241.6182,"ARG_OF_PERICENTER":97.1838,"MEAN_ANOMALY":262.9338,"EPHEMERIS_TYPE":0,"CLASSIFICATION_TYPE":"U","NORAD_CAT_ID":64682,"ELEMENT_SET_NO":999,"REV_AT_EPOCH":2451,"BSTAR":0.0013572,"MEAN_MOTION_DOT":0.00054316,"MEAN_MOTION_DDOT":0},{"OBJECT_NAME":"STARLINK-34550","OBJECT_ID":"2025-139V","EPOCH":"2025-11-26T03:54:20.107008","MEAN_MOTION":15.30221475,"ECCENTRICITY":0.0001297,"INCLINATION":53.1592,"RA_OF_ASC_NODE":247.9135,"ARG_OF_PERICENTER":102.8685,"MEAN_ANOMALY":257.246,"EPHEMERIS_TYPE":0,"CLASSIFICATION_TYPE":"U","NORAD_CAT_ID":64683,"ELEMENT_SET_NO":999,"REV_AT_EPOCH":2443,"BSTAR":0.0017621,"MEAN_MOTION_DOT":0.00052232,"MEAN_MOTION_DDOT":0},{"OBJECT_NAME":"STARLINK-34485","OBJECT_ID":"2025-139W","EPOCH":"2025-11-26T04:18:39.033216","MEAN_MOTION":15.30208647,"ECCENTRICITY":0.0001863,"INCLINATION":53.1605,"RA_OF_ASC_NODE":248.0135,"ARG_OF_PERICENTER":101.5239,"MEAN_ANOMALY":258.5971,"EPHEMERIS_TYPE":0,"CLASSIFICATION_TYPE":"U","NORAD_CAT_ID":64684,"ELEMENT_SET_NO":999,"REV_AT_EPOCH":2443,"BSTAR":0.0010509,"MEAN_MOTION_DOT":0.00030904,"MEAN_MOTION_DDOT":0},{"OBJECT_NAME":"STARLINK-34253","OBJECT_ID":"2025-139X","EPOCH":"2025-11-26T04:14:05.233344","MEAN_MOTION":15.30220792,"ECCENTRICITY":0.0001351,"INCLINATION":53.1597,"RA_OF_ASC_NODE":247.9965,"ARG_OF_PERICENTER":83.6843,"MEAN_ANOMALY":276.4312,"EPHEMERIS_TYPE":0,"CLASSIFICATION_TYPE":"U","NORAD_CAT_ID":64685,"ELEMENT_SET_NO":999,"REV_AT_EPOCH":2443,"BSTAR":0.0015515,"MEAN_MOTION_DOT":0.00045905,"MEAN_MOTION_DDOT":0},{"OBJECT_NAME":"STARLINK-34565","OBJECT_ID":"2025-139Y","EPOCH":"2025-11-26T04:09:31.977792","MEAN_MOTION":15.3020766,"ECCENTRICITY":0.0001802,"INCLINATION":53.1607,"RA_OF_ASC_NODE":247.974,"ARG_OF_PERICENTER":110.1027,"MEAN_ANOMALY":250.0167,"EPHEMERIS_TYPE":0,"CLASSIFICATION_TYPE":"U","NORAD_CAT_ID":64686,"ELEMENT_SET_NO":999,"REV_AT_EPOCH":2443,"BSTAR":0.0010907,"MEAN_MOTION_DOT":0.0003209,"MEAN_MOTION_DDOT":0},{"OBJECT_NAME":"STARLINK-34554","OBJECT_ID":"2025-139Z","EPOCH":"2025-11-26T03:36:05.786208","MEAN_MOTION":15.30216778,"ECCENTRICITY":0.00011,"INCLINATION":53.1573,"RA_OF_ASC_NODE":247.8333,"ARG_OF_PERICENTER":93.3367,"MEAN_ANOMALY":266.776,"EPHEMERIS_TYPE":0,"CLASSIFICATION_TYPE":"U","NORAD_CAT_ID":64687,"ELEMENT_SET_NO":999,"REV_AT_EPOCH":2443,"BSTAR":0.0013997,"MEAN_MOTION_DOT":0.00041347,"MEAN_MOTION_DDOT":0},{"OBJECT_NAME":"STARLINK-34262","OBJECT_ID":"2025-139AA","EPOCH":"2025-11-26T03:49:46.471296","MEAN_MOTION":15.30215034,"ECCENTRICITY":0.0001559,"INCLINATION":53.1591,"RA_OF_ASC_NODE":247.8917,"ARG_OF_PERICENTER":82.5912,"MEAN_ANOMALY":277.5266,"EPHEMERIS_TYPE":0,"CLASSIFICATION_TYPE":"U","NORAD_CAT_ID":64688,"ELEMENT_SET_NO":999,"REV_AT_EPOCH":2449,"BSTAR":0.00099234,"MEAN_MOTION_DOT":0.0002916,"MEAN_MOTION_DDOT":0},{"OBJECT_NAME":"STARLINK-34538","OBJECT_ID":"2025-139AB","EPOCH":"2025-11-26T04:00:24.892128","MEAN_MOTION":15.30220175,"ECCENTRICITY":0.0001302,"INCLINATION":53.1601,"RA_OF_ASC_NODE":247.9377,"ARG_OF_PERICENTER":93.759,"MEAN_ANOMALY":266.3559,"EPHEMERIS_TYPE":0,"CLASSIFICATION_TYPE":"U","NORAD_CAT_ID":64689,"ELEMENT_SET_NO":999,"REV_AT_EPOCH":2443,"BSTAR":0.0016914,"MEAN_MOTION_DOT":0.00050104,"MEAN_MOTION_DDOT":0},{"OBJECT_NAME":"STARLINK-34250","OBJECT_ID":"2025-139AC","EPOCH":"2025-11-26T00:56:52.004256","MEAN_MOTION":15.30210002,"ECCENTRICITY":0.00015989,"INCLINATION":53.161,"RA_OF_ASC_NODE":248.5635,"ARG_OF_PERICENTER":91.8044,"MEAN_ANOMALY":268.314,"EPHEMERIS_TYPE":0,"CLASSIFICATION_TYPE":"U","NORAD_CAT_ID":64690,"ELEMENT_SET_NO":999,"REV_AT_EPOCH":2441,"BSTAR":0.001648197,"MEAN_MOTION_DOT":0.00048792,"MEAN_MOTION_DDOT":0},{"OBJECT_NAME":"STARLINK-34497","OBJECT_ID":"2025-142A","EPOCH":"2025-11-26T02:10:07.478112","MEAN_MOTION":14.98329583,"ECCENTRICITY":0.0002445,"INCLINATION":70.0009,"RA_OF_ASC_NODE":215.6262,"ARG_OF_PERICENTER":272.4327,"MEAN_ANOMALY":87.6552,"EPHEMERIS_TYPE":0,"CLASSIFICATION_TYPE":"U","NORAD_CAT_ID":64696,"ELEMENT_SET_NO":999,"REV_AT_EPOCH":2412,"BSTAR":9.0035e-5,"MEAN_MOTION_DOT":9.81e-6,"MEAN_MOTION_DDOT":0},{"OBJECT_NAME":"STARLINK-34584","OBJECT_ID":"2025-142B","EPOCH":"2025-11-26T03:21:58.463136","MEAN_MOTION":14.9833117,"ECCENTRICITY":0.0002851,"INCLINATION":70.0009,"RA_OF_ASC_NODE":215.3922,"ARG_OF_PERICENTER":270.1075,"MEAN_ANOMALY":89.9758,"EPHEMERIS_TYPE":0,"CLASSIFICATION_TYPE":"U","NORAD_CAT_ID":64697,"ELEMENT_SET_NO":999,"REV_AT_EPOCH":2397,"BSTAR":0.00016915,"MEAN_MOTION_DOT":1.926e-5,"MEAN_MOTION_DDOT":0},{"OBJECT_NAME":"STARLINK-34535","OBJECT_ID":"2025-142C","EPOCH":"2025-11-26T02:28:54.180768","MEAN_MOTION":14.95910822,"ECCENTRICITY":0.0002483,"INCLINATION":70.0009,"RA_OF_ASC_NODE":215.2507,"ARG_OF_PERICENTER":273.6239,"MEAN_ANOMALY":86.4635,"EPHEMERIS_TYPE":0,"CLASSIFICATION_TYPE":"U","NORAD_CAT_ID":64698,"ELEMENT_SET_NO":999,"REV_AT_EPOCH":2396,"BSTAR":0.00017037,"MEAN_MOTION_DOT":1.82e-5,"MEAN_MOTION_DDOT":0},{"OBJECT_NAME":"STARLINK-34600","OBJECT_ID":"2025-142D","EPOCH":"2025-11-26T02:35:25.440576","MEAN_MOTION":14.95912136,"ECCENTRICITY":0.0002033,"INCLINATION":70.0008,"RA_OF_ASC_NODE":214.8687,"ARG_OF_PERICENTER":275.7745,"MEAN_ANOMALY":84.3181,"EPHEMERIS_TYPE":0,"CLASSIFICATION_TYPE":"U","NORAD_CAT_ID":64699,"ELEMENT_SET_NO":999,"REV_AT_EPOCH":2398,"BSTAR":0.00016844,"MEAN_MOTION_DOT":1.798e-5,"MEAN_MOTION_DDOT":0},{"OBJECT_NAME":"STARLINK-34560","OBJECT_ID":"2025-142E","EPOCH":"2025-11-26T02:18:36.819936","MEAN_MOTION":14.95912558,"ECCENTRICITY":0.0002685,"INCLINATION":70.0006,"RA_OF_ASC_NODE":214.8296,"ARG_OF_PERICENTER":272.2237,"MEAN_ANOMALY":87.8613,"EPHEMERIS_TYPE":0,"CLASSIFICATION_TYPE":"U","NORAD_CAT_ID":64700,"ELEMENT_SET_NO":999,"REV_AT_EPOCH":2394,"BSTAR":9.0329e-5,"MEAN_MOTION_DOT":9.22e-6,"MEAN_MOTION_DDOT":0},{"OBJECT_NAME":"STARLINK-34576","OBJECT_ID":"2025-142F","EPOCH":"2025-11-26T02:04:42.010176","MEAN_MOTION":14.95928054,"ECCENTRICITY":0.0002481,"INCLINATION":70.0009,"RA_OF_ASC_NODE":214.7912,"ARG_OF_PERICENTER":274.6232,"MEAN_ANOMALY":85.4642,"EPHEMERIS_TYPE":0,"CLASSIFICATION_TYPE":"U","NORAD_CAT_ID":64701,"ELEMENT_SET_NO":999,"REV_AT_EPOCH":2397,"BSTAR":0.00032705,"MEAN_MOTION_DOT":3.58e-5,"MEAN_MOTION_DDOT":0},{"OBJECT_NAME":"STARLINK-34322","OBJECT_ID":"2025-142G","EPOCH":"2025-11-26T02:01:36.892992","MEAN_MOTION":14.95908703,"ECCENTRICITY":0.0002632,"INCLINATION":70.0003,"RA_OF_ASC_NODE":215.179,"ARG_OF_PERICENTER":276.0437,"MEAN_ANOMALY":84.0421,"EPHEMERIS_TYPE":0,"CLASSIFICATION_TYPE":"U","NORAD_CAT_ID":64702,"ELEMENT_SET_NO":999,"REV_AT_EPOCH":2413,"BSTAR":0.00016548,"MEAN_MOTION_DOT":1.765e-5,"MEAN_MOTION_DDOT":0},{"OBJECT_NAME":"STARLINK-34470","OBJECT_ID":"2025-142H","EPOCH":"2025-11-26T02:13:05.608128","MEAN_MOTION":14.95922349,"ECCENTRICITY":0.0003039,"INCLINATION":70.0006,"RA_OF_ASC_NODE":214.8136,"ARG_OF_PERICENTER":265.4653,"MEAN_ANOMALY":94.6157,"EPHEMERIS_TYPE":0,"CLASSIFICATION_TYPE":"U","NORAD_CAT_ID":64703,"ELEMENT_SET_NO":999,"REV_AT_EPOCH":2396,"BSTAR":0.00015162,"MEAN_MOTION_DOT":1.61e-5,"MEAN_MOTION_DDOT":0},{"OBJECT_NAME":"STARLINK-34405","OBJECT_ID":"2025-142J","EPOCH":"2025-11-26T02:04:06.943008","MEAN_MOTION":14.98327447,"ECCENTRICITY":0.0002748,"INCLINATION":70.0007,"RA_OF_ASC_NODE":215.6093,"ARG_OF_PERICENTER":270.2112,"MEAN_ANOMALY":89.8732,"EPHEMERIS_TYPE":0,"CLASSIFICATION_TYPE":"U","NORAD_CAT_ID":64704,"ELEMENT_SET_NO":999,"REV_AT_EPOCH":2397,"BSTAR":0.00017337,"MEAN_MOTION_DOT":1.976e-5,"MEAN_MOTION_DDOT":0},{"OBJECT_NAME":"STARLINK-34406","OBJECT_ID":"2025-142K","EPOCH":"2025-11-26T02:39:56.601792","MEAN_MOTION":14.98332068,"ECCENTRICITY":0.0002605,"INCLINATION":70.0014,"RA_OF_ASC_NODE":215.6949,"ARG_OF_PERICENTER":274.5841,"MEAN_ANOMALY":85.5021,"EPHEMERIS_TYPE":0,"CLASSIFICATION_TYPE":"U","NORAD_CAT_ID":64705,"ELEMENT_SET_NO":999,"REV_AT_EPOCH":2408,"BSTAR":8.0337e-5,"MEAN_MOTION_DOT":8.66e-6,"MEAN_MOTION_DDOT":0},{"OBJECT_NAME":"STARLINK-34559","OBJECT_ID":"2025-142L","EPOCH":"2025-11-26T02:03:52.545312","MEAN_MOTION":14.98331043,"ECCENTRICITY":0.0002947,"INCLINATION":70.0009,"RA_OF_ASC_NODE":215.6064,"ARG_OF_PERICENTER":270.0204,"MEAN_ANOMALY":90.0617,"EPHEMERIS_TYPE":0,"CLASSIFICATION_TYPE":"U","NORAD_CAT_ID":64706,"ELEMENT_SET_NO":999,"REV_AT_EPOCH":2397,"BSTAR":0.00018586,"MEAN_MOTION_DOT":2.125e-5,"MEAN_MOTION_DDOT":0},{"OBJECT_NAME":"STARLINK-34316","OBJECT_ID":"2025-142M","EPOCH":"2025-11-26T02:09:53.031168","MEAN_MOTION":14.98331002,"ECCENTRICITY":0.0002763,"INCLINATION":70.0008,"RA_OF_ASC_NODE":215.6206,"ARG_OF_PERICENTER":274.5428,"MEAN_ANOMALY":85.5415,"EPHEMERIS_TYPE":0,"CLASSIFICATION_TYPE":"U","NORAD_CAT_ID":64707,"ELEMENT_SET_NO":999,"REV_AT_EPOCH":2413,"BSTAR":0.00015578,"MEAN_MOTION_DOT":1.766e-5,"MEAN_MOTION_DDOT":0},{"OBJECT_NAME":"STARLINK-34563","OBJECT_ID":"2025-142N","EPOCH":"2025-11-26T03:09:59.493312","MEAN_MOTION":14.98344152,"ECCENTRICITY":0.0003038,"INCLINATION":70.0007,"RA_OF_ASC_NODE":215.7625,"ARG_OF_PERICENTER":274.7663,"MEAN_ANOMALY":85.3149,"EPHEMERIS_TYPE":0,"CLASSIFICATION_TYPE":"U","NORAD_CAT_ID":64708,"ELEMENT_SET_NO":999,"REV_AT_EPOCH":2394,"BSTAR":0.0003061,"MEAN_MOTION_DOT":3.563e-5,"MEAN_MOTION_DDOT":0}]
